0 COSMOS 249 DEB *
1 03758U 68091AV  13292.42882983  .00001849  00000-0  25365-2 0  5034
2 03758 062.2711 050.4544 0777645 205.5864 282.9096 12.75601743 23054
0 COSMOS 249 DEB *
1 03758U 68091AV  13294.38726606  .00001745  00000-0  24018-2 0  5040
2 03758 062.2684 045.7801 0777440 206.0008 276.3578 12.75606566 23291
